GPS BIIA-23 (PRN 18)    
1 22877U 93068A   18166.37772948 -.00000036  00000-0  00000+0 0  9990
2 22877  54.4248  83.5787 0144405  74.9876  97.4743  2.00566188180517
GPS BIIR-2  (PRN 13)    
1 24876U 97035A   18166.03263429  .00000064  00000-0  00000+0 0  9991
2 24876  55.4881 212.8520 0030981  89.4575 270.9866  2.00564903153106
GPS BIIR-3  (PRN 11)    
1 25933U 99055A   18166.37974778 -.00000060  00000-0  00000+0 0  9990
2 25933  51.8863  61.7689 0166968 101.5916  74.8712  2.00567084136934
GPS BIIR-4  (PRN 20)    
1 26360U 00025A   18166.31072572  .00000034  00000-0  00000+0 0  9999
2 26360  53.2022 139.7452 0040837 113.8970  63.6669  2.00425912132619
GPS BIIR-5  (PRN 28)    
1 26407U 00040A   18166.34614348 -.00000057  00000-0  00000+0 0  9990
2 26407  56.4822 330.9666 0196709 272.8884 265.7099  2.00563022131296
GPS BIIR-6  (PRN 14)    
1 26605U 00071A   18166.35467965  .00000061  00000-0  00000+0 0  9990
2 26605  55.0613 210.4316 0101773 248.7658 200.2003  2.00572616128891
GPS BIIR-8  (PRN 16)    
1 27663U 03005A   18165.77724715 -.00000056  00000-0  00000+0 0  9994
2 27663  56.5469 330.7463 0099085  28.6259 218.8587  2.00567028112643
GPS BIIR-9  (PRN 21)    
1 27704U 03010A   18166.40056539 -.00000037  00000-0  00000+0 0  9998
2 27704  54.0953  83.1646 0246235 271.1575  25.7735  2.00561464111466
GPS BIIR-10 (PRN 22)    
1 28129U 03058A   18166.22412761  .00000037  00000-0  00000+0 0  9994
2 28129  53.0153 142.6039 0075793 272.4857  86.6155  2.00549394106152
GPS BIIR-11 (PRN 19)    
1 28190U 04009A   18166.20225848 -.00000065  00000-0  00000+0 0  9997
2 28190  56.1710  31.5804 0096689  68.5813 273.4253  2.00558883104338
GPS BIIR-12 (PRN 23)    
1 28361U 04023A   18166.44411257  .00000061  00000-0  00000+0 0  9995
2 28361  54.0618 205.1699 0127427 225.8606 208.0726  2.00550412102423
GPS BIIR-13 (PRN 02)    
1 28474U 04045A   18166.26339150 -.00000037  00000-0  00000+0 0  9999
2 28474  54.4639  82.7831 0181268 254.1762  48.6258  2.00553796 99783
GPS BIIRM-1 (PRN 17)    
1 28874U 05038A   18166.13194458 -.00000065  00000-0  00000+0 0  9993
2 28874  56.3124  28.8930 0125703 258.4176  54.4419  2.00575829 93189
GPS BIIRM-2 (PRN 31)    
1 29486U 06042A   18166.41440583 -.00000004  00000-0  00000+0 0  9996
2 29486  55.1799 267.7403 0087747 351.2306  91.0420  2.00563092 85904
GPS BIIRM-3 (PRN 12)    
1 29601U 06052A   18166.24454868 -.00000056  00000-0  00000+0 0  9995
2 29601  56.5224 329.6450 0069895  55.8616 304.7914  2.00575402 84815
GPS BIIRM-4 (PRN 15)    
1 32260U 07047A   18165.56703380  .00000072  00000-0  00000+0 0  9992
2 32260  53.1864 201.2298 0101423  37.9423 322.8487  2.00553330 78184
GPS BIIRM-5 (PRN 29)    
1 32384U 07062A   18166.33849590 -.00000066  00000-0  00000+0 0  9990
2 32384  56.3863  29.4939 0005952  63.9855 267.9341  2.00563198 76926
GPS BIIRM-6 (PRN 07)    
1 32711U 08012A   18165.97641858 -.00000002  00000-0  00000+0 0  9996
2 32711  54.9139 267.0373 0118840 216.2870 142.9437  2.00565167 75108
GPS BIIRM-8 (PRN 05)    
1 35752U 09043A   18166.20365182  .00000042  00000-0  00000+0 0  9992
2 35752  54.3210 144.7918 0052814  33.3043 160.8051  2.00557470 64695
GPS BIIF-1  (PRN 25)    
1 36585U 10022A   18166.34610604 -.00000056  00000-0  00000+0 0  9999
2 36585  55.8133 326.2041 0073145  48.4557 351.2239  2.00568423 58946
GPS BIIF-2  (PRN 01)    
1 37753U 11036A   18166.35441847 -.00000031  00000-0  00000+0 0  9998
2 37753  55.6635  86.3039 0077487  35.4053  96.9518  2.00564176 50621
GPS BIIF-3  (PRN 24)    
1 38833U 12053A   18166.15721906  .00000000  00000-0  00000+0 0  9998
2 38833  53.9437 263.5891 0068387  29.4693 330.9613  2.00566657 41699
GPS BIIF-4  (PRN 27)    
1 39166U 13023A   18166.01488914 -.00000065  00000-0  00000+0 0  9992
2 39166  56.0096  25.7944 0058904  22.8684 337.4518  2.00562536 37224
GPS BIIF-5  (PRN 30)    
1 39533U 14008A   18166.01441990 -.00000006  00000-0  00000+0 0  9992
2 39533  54.0886 268.9446 0035156 188.4006 171.5783  2.00556936 31587
GPS BIIF-6  (PRN 06)    
1 39741U 14026A   18166.29323379 -.00000032  00000-0  00000+0 0  9992
2 39741  55.6470  85.8292 0013363 294.7065  65.1566  2.00567153 29870
GPS BIIF-7  (PRN 09)    
1 40105U 14045A   18166.38543358  .00000063  00000-0  00000+0 0  9993
2 40105  54.5876 205.2760 0006883 112.1598 247.9929  2.00571306 28322
GPS BIIF-8  (PRN 03)    
1 40294U 14068A   18166.25699599  .00000045  00000-0  00000+0 0  9992
2 40294  55.0720 146.0549 0013645  16.6110 343.4062  2.00555673 26545
GPS BIIF-9  (PRN 26)    
1 40534U 15013A   18165.89373858 -.00000058  00000-0  00000+0 0  9991
2 40534  54.7550 324.9456 0027681   2.4956 357.5066  2.00563664 23602
GPS BIIF-10  (PRN 08)   
1 40730U 15033A   18166.05800798 -.00000066  00000-0  00000+0 0  9997
2 40730  55.5400  25.2997 0035694 332.7372  27.1329  2.00574686 21367
GPS BIIF-11  (PRN 10)   
1 41019U 15062A   18166.10713906  .00000045  00000-0  00000+0 0  9996
2 41019  55.0771 145.8636 0036708 206.0651 153.7233  2.00564267 19184
GPS BIIF-12  (PRN 32)   
1 41328U 16007A   18165.69619100  .00000072  00000-0  00000+0 0  9993
2 41328  54.8382 205.5931 0023375 219.0161 140.8992  2.00563247 17230
